GAOFEN-5 01             
1 43461U 18043A   26154.49766817  .00000391  00000+0  90445-4 0  9998
2 43461  98.4563 125.7972 0002900 108.1077 252.0439 14.60595182429699
BANGABANDHUSAT-1        
1 43463U 18044A   26154.87572920 -.00000350  00000+0  00000+0 0  9992
2 43463   0.0243  70.1783 0002056   1.4718 255.0387  1.00269989 29578
GRACE-FO 1              
1 43476U 18047A   26154.82418780  .00004017  00000+0  10584-3 0  9992
2 43476  88.9922 199.7915 0012229 148.9474 211.2506 15.38167435447744
GRACE-FO 2              
1 43477U 18047B   26154.82448934  .00004073  00000+0  10733-3 0  9995
2 43477  88.9922 199.7914 0012224 148.8753 211.3229 15.38169981447749
IRIDIUM 161             
1 43478U 18047C   26154.30282571  .00000376  00000+0  10577-3 0  9990
2 43478  86.4479  94.2760 0002470  89.9942 270.1541 14.43281947423134
IRIDIUM 152             
1 43479U 18047D   26154.28766567  .00000033  00000+0  47785-5 0  9993
2 43479  86.3954  94.1433 0002364  85.1257 275.0209 14.34217603420496
IRIDIUM 147             
1 43480U 18047E   26154.29400565  .00000147  00000+0  45367-4 0  9998
2 43480  86.3956  94.1456 0002168  84.3251 275.8192 14.34217712420492
IRIDIUM 110             
1 43481U 18047F   26154.30035090  .00000047  00000+0  97096-5 0  9994
2 43481  86.3956  94.2344 0002558  89.2093 270.9396 14.34217825420487
IRIDIUM 162             
1 43482U 18047G   26154.29651377  .00000390  00000+0  10982-3 0  9993
2 43482  86.4477  94.1694 0002399  85.2096 274.9379 14.43273285423127
GAOFEN-6                
1 43484U 18048A   26154.92490609  .00000369  00000+0  59862-4 0  9992
2 43484  97.7761 218.0945 0011061 212.4618 147.5913 14.76614707431432
LUOJIA-1 01             
1 43485U 18048B   26154.92025683  .00001622  00000+0  18603-3 0  9999
2 43485  97.8107 233.3214 0009477 156.1386 204.0271 14.87233416432243
SES-12                  
1 43488U 18049A   26154.88219391 -.00000258  00000+0  00000+0 0  9992
2 43488   0.0285  44.2544 0000882 277.6279 343.0511  1.00272013 29289
FENGYUN 2H              
1 43491U 18050A   26154.93917998 -.00000120  00000+0  00000+0 0  9990
2 43491   2.9977  79.2257 0001417 127.2761 103.4520  1.00272047 29300
COSMOS 2527 [GLONASS-M] 
1 43508U 18053A   26154.47607152 -.00000013  00000+0  00000+0 0  9990
2 43508  65.5707  74.3639 0007385 242.6026 117.3366  2.13102282 61981
PAKTES 1A               
1 43529U 18056A   26154.92191076  .00004987  00000+0  41440-3 0  9999
2 43529  98.1290 310.8420 0022239 147.8955 212.3626 14.99038976429934
PRSS-1                  
1 43530U 18056B   26154.95620541  .00001348  00000+0  17654-3 0  9996
2 43530  97.7823 223.1919 0001795  80.6501 279.4915 14.81968339426474
BEIDOU-2 IGSO-7         
1 43539U 18057A   26154.94524668 -.00000006  00000+0  00000+0 0  9992
2 43539  55.1930 163.1731 0104471 237.8941 302.5487  1.00255567 28990
TELSTAR 19V             
1 43562U 18059A   26154.91091603 -.00000268  00000+0  00000+0 0  9995
2 43562   0.0110  92.7134 0002822  16.0565  48.5169  1.00270107 29010
GSAT0221 (GALILEO 25)   
1 43564U 18060A   26152.22723269 -.00000081  00000+0  00000+0 0  9994
2 43564  57.1775 342.2110 0002878 313.2463  46.7439  1.70476150 48899
GSAT0222 (GALILEO 26)   
1 43565U 18060B   26153.62003207 -.00000077  00000+0  00000+0 0  9998
2 43565  57.1811 342.1774 0001801 259.8309 100.1613  1.70475858 48966
GSAT0219 (GALILEO 23)   
1 43566U 18060C   26153.25435919 -.00000078  00000+0  00000+0 0  9998
2 43566  57.1772 342.1886 0002380 332.3611  27.6392  1.70476128 48938
GSAT0220 (GALILEO 24)   
1 43567U 18060D   26152.88875620 -.00000079  00000+0  00000+0 0  9995
2 43567  57.1762 342.1988 0002392 324.4243  35.5731  1.70476143 48917
IRIDIUM 160             
1 43569U 18061A   26154.24618650  .00000087  00000+0  23909-4 0  9994
2 43569  86.3969  62.6255 0002269  87.5514 272.5941 14.34217702411372
IRIDIUM 166             
1 43570U 18061B   26154.27155631  .00000046  00000+0  94556-5 0  9996
2 43570  86.3967  62.5657 0002085  84.4353 275.7080 14.34217804411406
IRIDIUM 158             
1 43571U 18061C   26154.23984132  .00000066  00000+0  16636-4 0  9993
2 43571  86.3968  62.5888 0002344  83.5835 276.5628 14.34216372411368
IRIDIUM 165             
1 43572U 18061D   26154.26521137  .00000307  00000+0  10258-3 0  9990
2 43572  86.3971  62.6242 0002114  83.6073 276.5364 14.34219521411397
IRIDIUM 155             
1 43573U 18061E   26154.22715834  .00000099  00000+0  28460-4 0  9999
2 43573  86.3966  62.5102 0002211  81.2018 278.9429 14.34217910411351
IRIDIUM 154             
1 43574U 18061F   26154.20812984  .00000107  00000+0  31263-4 0  9997
2 43574  86.3970  62.6509 0002052  85.8765 274.2665 14.34217302411403
IRIDIUM 163             
1 43575U 18061G   26154.25887038  .00000082  00000+0  22140-4 0  9991
2 43575  86.3967  62.5453 0002345  84.9878 275.1585 14.34218315411380
IRIDIUM 156             
1 43576U 18061H   26154.65211289  .00000075  00000+0  19671-4 0  9992
2 43576  86.3964  62.3884 0002202  78.3978 281.7465 14.34216992411439
IRIDIUM 164             
1 43577U 18061J   26154.28423836  .00000135  00000+0  41105-4 0  9999
2 43577  86.3968  62.5824 0002082  88.5188 271.6246 14.34216110411428
