OBJECT_NAME,OBJECT_ID,EPOCH,MEAN_MOTION,ECCENTRICITY,INCLINATION,RA_OF_ASC_NODE,ARG_OF_PERICENTER,MEAN_ANOMALY,EPHEMERIS_TYPE,CLASSIFICATION_TYPE,NORAD_CAT_ID,ELEMENT_SET_NO,REV_AT_EPOCH,BSTAR,MEAN_MOTION_DOT,MEAN_MOTION_DDOT
GAOFEN-5 01,2018-043A,2026-06-03T11:56:38.529888,14.60595182,.00029,98.4563,125.7972,108.1077,252.0439,0,U,43461,999,42969,.90445E-4,.391E-5,0
BANGABANDHUSAT-1,2018-044A,2026-06-03T21:01:03.002880,1.00269989,.00020565,0.0243,70.1783,1.4718,255.0387,0,U,43463,999,2957,0,-.35E-5,0
GRACE-FO 1,2018-047A,2026-06-03T19:46:49.825920,15.38167435,.0012229,88.9922,199.7915,148.9474,211.2506,0,U,43476,999,44774,.10584405E-3,.4017E-4,0
GRACE-FO 2,2018-047B,2026-06-03T19:47:15.878976,15.38169981,.00122243,88.9922,199.7914,148.8753,211.3229,0,U,43477,999,44774,.10733254E-3,.4073E-4,0
IRIDIUM 161,2018-047C,2026-06-03T07:16:04.141344,14.43281947,.00024701,86.4479,94.2760,89.9942,270.1541,0,U,43478,999,42313,.10576866E-3,.376E-5,0
IRIDIUM 152,2018-047D,2026-06-03T06:54:14.313888,14.34217603,.00023649,86.3954,94.1433,85.1257,275.0209,0,U,43479,999,42049,.4778487E-5,.33E-6,0
IRIDIUM 147,2018-047E,2026-06-03T07:03:22.088160,14.34217712,.00021682,86.3956,94.1456,84.3251,275.8192,0,U,43480,999,42049,.4536695E-4,.147E-5,0
IRIDIUM 110,2018-047F,2026-06-03T07:12:30.317760,14.34217825,.00025587,86.3956,94.2344,89.2093,270.9396,0,U,43481,999,42048,.9709567E-5,.47E-6,0
IRIDIUM 162,2018-047G,2026-06-03T07:06:58.789728,14.43273285,.00023996,86.4477,94.1694,85.2096,274.9379,0,U,43482,999,42312,.10982343E-3,.39E-5,0
GAOFEN-6,2018-048A,2026-06-03T22:11:51.886176,14.76614707,.00110614,97.7761,218.0945,212.4618,147.5913,0,U,43484,999,43143,.59861513E-4,.369E-5,0
LUOJIA-1 01,2018-048B,2026-06-03T22:05:10.190112,14.87233416,.00094779,97.8107,233.3214,156.1386,204.0271,0,U,43485,999,43224,.18602768E-3,.1622E-4,0
SES-12,2018-049A,2026-06-03T21:10:21.553824,1.00272013,.00008824,0.0285,44.2544,277.6279,343.0511,0,U,43488,999,2928,0,-.258E-5,0
FENGYUN 2H,2018-050A,2026-06-03T22:32:25.150272,1.00272047,.00014179,2.9977,79.2257,127.2761,103.4520,0,U,43491,999,2930,0,-.12E-5,0
COSMOS 2527 [GLONASS-M],2018-053A,2026-06-03T11:25:32.579328,2.13102282,.00073854,65.5707,74.3639,242.6026,117.3366,0,U,43508,999,6198,0,-.13E-6,0
PAKTES 1A,2018-056A,2026-06-03T22:07:33.089664,14.99038976,.00222399,98.1290,310.8420,147.8955,212.3626,0,U,43529,999,42993,.41440114E-3,.4987E-4,0
PRSS-1,2018-056B,2026-06-03T22:56:56.147424,14.81968339,.00017957,97.7823,223.1919,80.6501,279.4915,0,U,43530,999,42647,.17654047E-3,.1348E-4,0
BEIDOU-2 IGSO-7,2018-057A,2026-06-03T22:41:09.313152,1.00255567,.01044712,55.1930,163.1731,237.8941,302.5487,0,U,43539,999,2899,0,-.6E-7,0
TELSTAR 19V,2018-059A,2026-06-03T21:51:43.144992,1.00270107,.00028221,0.0110,92.7134,16.0565,48.5169,0,U,43562,999,2901,0,-.268E-5,0
GSAT0221 (GALILEO 25),2018-060A,2026-06-01T05:27:12.904416,1.70476150,.0002878,57.1775,342.2110,313.2463,46.7439,0,U,43564,999,4889,0,-.81E-6,0
GSAT0222 (GALILEO 26),2018-060B,2026-06-02T14:52:50.770848,1.70475858,.00018015,57.1811,342.1774,259.8309,100.1613,0,U,43565,999,4896,0,-.77E-6,0
GSAT0219 (GALILEO 23),2018-060C,2026-06-02T06:06:16.634016,1.70476128,.000238,57.1772,342.1886,332.3611,27.6392,0,U,43566,999,4893,0,-.78E-6,0
GSAT0220 (GALILEO 24),2018-060D,2026-06-01T21:19:48.535680,1.70476143,.0002392,57.1762,342.1988,324.4243,35.5731,0,U,43567,999,4891,0,-.79E-6,0
IRIDIUM 160,2018-061A,2026-06-03T05:54:30.513600,14.34217702,.00022699,86.3969,62.6255,87.5514,272.5941,0,U,43569,999,41137,.23908606E-4,.87E-6,0
IRIDIUM 166,2018-061B,2026-06-03T06:31:02.465184,14.34217804,.00020854,86.3967,62.5657,84.4353,275.7080,0,U,43570,999,41140,.9455637E-5,.46E-6,0
IRIDIUM 158,2018-061C,2026-06-03T05:45:22.290048,14.34216372,.00023442,86.3968,62.5888,83.5835,276.5628,0,U,43571,999,41136,.16636328E-4,.66E-6,0
IRIDIUM 165,2018-061D,2026-06-03T06:21:54.262368,14.34219521,.00021142,86.3971,62.6242,83.6073,276.5364,0,U,43572,999,41139,.1025818E-3,.307E-5,0
IRIDIUM 155,2018-061E,2026-06-03T05:27:06.480576,14.34217910,.0002211,86.3966,62.5102,81.2018,278.9429,0,U,43573,999,41135,.2846E-4,.99E-6,0
IRIDIUM 154,2018-061F,2026-06-03T04:59:42.418176,14.34217302,.0002052,86.3970,62.6509,85.8765,274.2665,0,U,43574,999,41140,.31263E-4,.107E-5,0
IRIDIUM 163,2018-061G,2026-06-03T06:12:46.400832,14.34218315,.00023457,86.3967,62.5453,84.9878,275.1585,0,U,43575,999,41138,.22139673E-4,.82E-6,0
IRIDIUM 156,2018-061H,2026-06-03T15:39:02.553696,14.34216992,.00022021,86.3964,62.3884,78.3978,281.7465,0,U,43576,999,41143,.19671314E-4,.75E-6,0
IRIDIUM 164,2018-061J,2026-06-03T06:49:18.194304,14.34216110,.00020825,86.3968,62.5824,88.5188,271.6246,0,U,43577,999,41142,.41105292E-4,.135E-5,0
